{
  "type": "FeatureCollection",
  "features": [
    {
      "type": "Feature",
      "properties": {
        "norad_id": 41890,
        "name": "CYGFM07",
        "group": "weather",
        "lat": 18.376477407363048,
        "lon": -168.86823650538528,
        "alt_km": 408.8807551903419,
        "timestamp": "2025-12-09T23:33:23.490059+00:00",
        "meta_object_name": "CYGFM07",
        "meta_object_id": "2016-078G",
        "meta_epoch": "2025-12-09T13:39:05.040576",
        "meta_mean_motion": 15.4979977,
        "meta_eccentricity": 0.00095532,
        "meta_inclination": 34.9481,
        "meta_ra_of_asc_node": 42.2409,
        "meta_arg_of_pericenter": 187.8232,
        "meta_mean_anomaly": 172.2342,
        "meta_ephemeris_type": 0,
        "meta_classification_type": "U",
        "meta_norad_cat_id": 41890,
        "meta_element_set_no": 999,
        "meta_rev_at_epoch": 49946,
        "meta_bstar": 0.00050008284,
        "meta_mean_motion_dot": 0.00028813,
        "meta_mean_motion_ddot": 0,
        "tle_line1": "1 41890U 16078G   25343.56880834  .00028813  00000+0  50008-3 0  9990",
        "tle_line2": "2 41890  34.9481  42.2409 0009553 187.8232 172.2342 15.49799770499468"
      },
      "geometry": {
        "type": "Point",
        "coordinates": [
          -168.86823650538528,
          18.376477407363048
        ]
      }
    },
    {
      "type": "Feature",
      "properties": {
        "norad_id": 41891,
        "name": "CYGFM03",
        "group": "weather",
        "lat": -10.034385213488667,
        "lon": 26.77292663579985,
        "alt_km": 423.3817859996725,
        "timestamp": "2025-12-09T23:33:23.490070+00:00",
        "meta_object_name": "CYGFM03",
        "meta_object_id": "2016-078H",
        "meta_epoch": "2025-12-09T14:21:23.160672",
        "meta_mean_motion": 15.49703336,
        "meta_eccentricity": 0.00088503,
        "meta_inclination": 34.9436,
        "meta_ra_of_asc_node": 43.965,
        "meta_arg_of_pericenter": 175.1445,
        "meta_mean_anomaly": 184.9364,
        "meta_ephemeris_type": 0,
        "meta_classification_type": "U",
        "meta_norad_cat_id": 41891,
        "meta_element_set_no": 999,
        "meta_rev_at_epoch": 49944,
        "meta_bstar": 0.00050549229,
        "meta_mean_motion_dot": 0.00029019,
        "meta_mean_motion_ddot": 0,
        "tle_line1": "1 41891U 16078H   25343.59818473  .00029019  00000+0  50549-3 0  9993",
        "tle_line2": "2 41891  34.9436  43.9650 0008850 175.1445 184.9364 15.49703336499445"
      },
      "geometry": {
        "type": "Point",
        "coordinates": [
          26.77292663579985,
          -10.034385213488667
        ]
      }
    },
    {
      "type": "Feature",
      "properties": {
        "norad_id": 43010,
        "name": "FENGYUN 3D",
        "group": "weather",
        "lat": -40.88508453004411,
        "lon": -41.87316656185961,
        "alt_km": 833.2663185005422,
        "timestamp": "2025-12-09T23:33:23.490081+00:00",
        "meta_object_name": "FENGYUN 3D",
        "meta_object_id": "2017-072A",
        "meta_epoch": "2025-12-09T15:17:39.650208",
        "meta_mean_motion": 14.19681012,
        "meta_eccentricity": 7.623e-05,
        "meta_inclination": 98.9892,
        "meta_ra_of_asc_node": 309.9006,
        "meta_arg_of_pericenter": 191.5364,
        "meta_mean_anomaly": 168.5794,
        "meta_ephemeris_type": 0,
        "meta_classification_type": "U",
        "meta_norad_cat_id": 43010,
        "meta_element_set_no": 999,
        "meta_rev_at_epoch": 41809,
        "meta_bstar": -5.4313743e-05,
        "meta_mean_motion_dot": -1.61e-06,
        "meta_mean_motion_ddot": 0,
        "tle_line1": "1 43010U 17072A   25343.63726447 -.00000161  00000+0 -54314-4 0  9991",
        "tle_line2": "2 43010  98.9892 309.9006 0000762 191.5364 168.5794 14.19681012418091"
      },
      "geometry": {
        "type": "Point",
        "coordinates": [
          -41.87316656185961,
          -40.88508453004411
        ]
      }
    },
    {
      "type": "Feature",
      "properties": {
        "norad_id": 43013,
        "name": "NOAA 20 (JPSS-1)",
        "group": "weather",
        "lat": 65.84546021342163,
        "lon": 120.41708671805624,
        "alt_km": 819.074348060959,
        "timestamp": "2025-12-09T23:33:23.490094+00:00",
        "meta_object_name": "NOAA 20 (JPSS-1)",
        "meta_object_id": "2017-073A",
        "meta_epoch": "2025-12-09T14:34:12.125856",
        "meta_mean_motion": 14.19524444,
        "meta_eccentricity": 0.00021415,
        "meta_inclination": 98.7595,
        "meta_ra_of_asc_node": 279.9382,
        "meta_arg_of_pericenter": 91.7816,
        "meta_mean_anomaly": 268.3605,
        "meta_ephemeris_type": 0,
        "meta_classification_type": "U",
        "meta_norad_cat_id": 43013,
        "meta_element_set_no": 999,
        "meta_rev_at_epoch": 41757,
        "meta_bstar": 0.00010728253,
        "meta_mean_motion_dot": 1.82e-06,
        "meta_mean_motion_ddot": 0,
        "tle_line1": "1 43013U 17073A   25343.60708479  .00000182  00000+0  10728-3 0  9998",
        "tle_line2": "2 43013  98.7595 279.9382 0002141  91.7816 268.3605 14.19524444417578"
      },
      "geometry": {
        "type": "Point",
        "coordinates": [
          120.41708671805624,
          65.84546021342163
        ]
      }
    },
    {
      "type": "Feature",
      "properties": {
        "norad_id": 43226,
        "name": "GOES 17",
        "group": "weather",
        "lat": -0.43427308454507235,
        "lon": -17.150394981042425,
        "alt_km": 35780.703906103015,
        "timestamp": "2025-12-09T23:33:23.490107+00:00",
        "meta_object_name": "GOES 17",
        "meta_object_id": "2018-022A",
        "meta_epoch": "2025-12-09T12:25:42.053376",
        "meta_mean_motion": 1.0027167,
        "meta_eccentricity": 0.00034001,
        "meta_inclination": 0.4517,
        "meta_ra_of_asc_node": 89.1538,
        "meta_arg_of_pericenter": 186.2479,
        "meta_mean_anomaly": 260.0352,
        "meta_ephemeris_type": 0,
        "meta_classification_type": "U",
        "meta_norad_cat_id": 43226,
        "meta_element_set_no": 999,
        "meta_rev_at_epoch": 2852,
        "meta_bstar": 0,
        "meta_mean_motion_dot": -1.8e-06,
        "meta_mean_motion_ddot": 0,
        "tle_line1": "1 43226U 18022A   25343.51784784 -.00000180  00000+0  00000+0 0  9999",
        "tle_line2": "2 43226   0.4517  89.1538 0003400 186.2479 260.0352  1.00271670 28523"
      },
      "geometry": {
        "type": "Point",
        "coordinates": [
          -17.150394981042425,
          -0.43427308454507235
        ]
      }
    },
    {
      "type": "Feature",
      "properties": {
        "norad_id": 43491,
        "name": "FENGYUN 2H",
        "group": "weather",
        "lat": 2.3998206612631687,
        "lon": 151.6209245780147,
        "alt_km": 35786.97055343062,
        "timestamp": "2025-12-09T23:33:23.490120+00:00",
        "meta_object_name": "FENGYUN 2H",
        "meta_object_id": "2018-050A",
        "meta_epoch": "2025-12-09T13:57:05.506272",
        "meta_mean_motion": 1.00271069,
        "meta_eccentricity": 0.00029387,
        "meta_inclination": 2.5424,
        "meta_ra_of_asc_node": 81.3494,
        "meta_arg_of_pericenter": 164.7432,
        "meta_mean_anomaly": 121.1115,
        "meta_ephemeris_type": 0,
        "meta_classification_type": "U",
        "meta_norad_cat_id": 43491,
        "meta_element_set_no": 999,
        "meta_rev_at_epoch": 2753,
        "meta_bstar": 0,
        "meta_mean_motion_dot": -1.28e-06,
        "meta_mean_motion_ddot": 0,
        "tle_line1": "1 43491U 18050A   25343.58131373 -.00000128  00000+0  00000+0 0  9993",
        "tle_line2": "2 43491   2.5424  81.3494 0002938 164.7432 121.1115  1.00271069 27533"
      },
      "geometry": {
        "type": "Point",
        "coordinates": [
          151.6209245780147,
          2.3998206612631687
        ]
      }
    },
    {
      "type": "Feature",
      "properties": {
        "norad_id": 43689,
        "name": "METOP-C",
        "group": "weather",
        "lat": -53.2642408193873,
        "lon": -150.0361040428174,
        "alt_km": 828.252156745245,
        "timestamp": "2025-12-09T23:33:23.490131+00:00",
        "meta_object_name": "METOP-C",
        "meta_object_id": "2018-087A",
        "meta_epoch": "2025-12-09T14:00:43.750944",
        "meta_mean_motion": 14.21510144,
        "meta_eccentricity": 0.00014706,
        "meta_inclination": 98.6934,
        "meta_ra_of_asc_node": 41.4018,
        "meta_arg_of_pericenter": 47.8138,
        "meta_mean_anomaly": 312.3164,
        "meta_ephemeris_type": 0,
        "meta_classification_type": "U",
        "meta_norad_cat_id": 43689,
        "meta_element_set_no": 999,
        "meta_rev_at_epoch": 36789,
        "meta_bstar": 0.00013738707,
        "meta_mean_motion_dot": 2.57e-06,
        "meta_mean_motion_ddot": 0,
        "tle_line1": "1 43689U 18087A   25343.58383971  .00000257  00000+0  13739-3 0  9994",
        "tle_line2": "2 43689  98.6934  41.4018 0001470  47.8138 312.3164 14.21510144367898"
      },
      "geometry": {
        "type": "Point",
        "coordinates": [
          -150.0361040428174,
          -53.2642408193873
        ]
      }
    }
  ]
}